<?xml version="1.0" encoding="UTF-8"?>
<gpx xmlns="http://www.topografix.com/GPX/1/1" xmlns:xsi="http://www.w3.org/2001/XMLSchema-instance" xmlns:gpxtpx="http://www.garmin.com/xmlschemas/TrackPointExtension/v1" version="1.1" creator="Samsung Health_0.2" xsi:schemaLocation="http://www.topografix.com/GPX/1/1 http://www.topografix.com/GPX/1/1/gpx.xsd http://www.garmin.com/xmlschemas/TrackPointExtension/v1 http://www.garmin.com/xmlschemas/TrackPointExtensionv1.xsd">
<metadate>2020-12-29T09:11:26Z</metadate>
<trk>
<name>20201229_181113.gpx</name>
<trkseg>
<trkpt lat="34.7425956726074" lon="127.73088836669922">
<time>2020-12-29T09:11:26Z</time>
</trkpt>
<trkpt lat="34.7425270080566" lon="127.73088836669922">
<time>2020-12-29T09:11:27Z</time>
</trkpt>
<trkpt lat="34.7424774169922" lon="127.73091125488281">
<time>2020-12-29T09:11:30Z</time>
</trkpt>
<trkpt lat="34.7424278259277" lon="127.73092651367188">
<time>2020-12-29T09:11:33Z</time>
</trkpt>
<trkpt lat="34.7424430847168" lon="127.73096466064453">
<ele>10.403377</ele>
<time>2020-12-29T09:11:44Z</time>
<extensions>
<gpxtpx:TrackPointExtension>
<gpxtpx:cad>98</gpxtpx:cad>
</gpxtpx:TrackPointExtension>
</extensions>
</trkpt>
<trkpt lat="34.7424583435059" lon="127.73102569580078">
<ele>9.934689</ele>
<time>2020-12-29T09:11:51Z</time>
</trkpt>
<trkpt lat="34.7424468994141" lon="127.73108673095703">
<time>2020-12-29T09:11:54Z</time>
<extensions>
<gpxtpx:TrackPointExtension>
<gpxtpx:cad>122</gpxtpx:cad>
</gpxtpx:TrackPointExtension>
</extensions>
</trkpt>
<trkpt lat="34.7424201965332" lon="127.73113250732422">
<ele>9.429656</ele>
<time>2020-12-29T09:11:57Z</time>
</trkpt>
<trkpt lat="34.7423858642578" lon="127.73117065429688">
<time>2020-12-29T09:11:59Z</time>
</trkpt>
<trkpt lat="34.7423439025879" lon="127.731201171875">
<time>2020-12-29T09:12:02Z</time>
</trkpt>
<trkpt lat="34.7423095703125" lon="127.73123931884766">
<ele>9.858048</ele>
<time>2020-12-29T09:12:05Z</time>
</trkpt>
<trkpt lat="34.7422676086426" lon="127.73128509521484">
<time>2020-12-29T09:12:09Z</time>
</trkpt>
<trkpt lat="34.7422332763672" lon="127.73133850097656">
<time>2020-12-29T09:12:13Z</time>
</trkpt>
<trkpt lat="34.7422065734863" lon="127.73140716552734">
<ele>10.321822</ele>
<time>2020-12-29T09:12:17Z</time>
</trkpt>
<trkpt lat="34.7421989440918" lon="127.7314682006836">
<time>2020-12-29T09:12:22Z</time>
</trkpt>
<trkpt lat="34.7421646118164" lon="127.73152160644531">
<ele>10.592033</ele>
<time>2020-12-29T09:12:27Z</time>
</trkpt>
<trkpt lat="34.7421417236328" lon="127.73158264160156">
<time>2020-12-29T09:12:31Z</time>
</trkpt>
<trkpt lat="34.742130279541" lon="127.73164367675781">
<ele>10.11155</ele>
<time>2020-12-29T09:12:35Z</time>
</trkpt>
<trkpt lat="34.742115020752" lon="127.73169708251953">
<time>2020-12-29T09:12:38Z</time>
</trkpt>
<trkpt lat="34.7420845031738" lon="127.73174285888672">
<time>2020-12-29T09:12:42Z</time>
</trkpt>
<trkpt lat="34.7420425415039" lon="127.73178100585938">
<ele>9.749968</ele>
<time>2020-12-29T09:12:46Z</time>
</trkpt>
<trkpt lat="34.7420082092285" lon="127.73182678222656">
<time>2020-12-29T09:12:50Z</time>
</trkpt>
<trkpt lat="34.7419815063477" lon="127.73188018798828">
<time>2020-12-29T09:12:54Z</time>
<extensions>
<gpxtpx:TrackPointExtension>
<gpxtpx:cad>108</gpxtpx:cad>
</gpxtpx:TrackPointExtension>
</extensions>
</trkpt>
<trkpt lat="34.7419509887695" lon="127.73193359375">
<ele>9.431622</ele>
<time>2020-12-29T09:12:59Z</time>
</trkpt>
<trkpt lat="34.7419166564941" lon="127.73198699951172">
<time>2020-12-29T09:13:03Z</time>
</trkpt>
<trkpt lat="34.741886138916" lon="127.7320327758789">
<ele>9.542649</ele>
<time>2020-12-29T09:13:10Z</time>
</trkpt>
<trkpt lat="34.7418556213379" lon="127.7320785522461">
<ele>9.831519</ele>
<time>2020-12-29T09:13:15Z</time>
</trkpt>
<trkpt lat="34.7418212890625" lon="127.73211669921875">
<time>2020-12-29T09:13:20Z</time>
</trkpt>
<trkpt lat="34.7417793273926" lon="127.73214721679688">
<time>2020-12-29T09:13:24Z</time>
<extensions>
<gpxtpx:TrackPointExtension>
<gpxtpx:hr>134</gpxtpx:hr>
<gpxtpx:cad>109</gpxtpx:cad>
</gpxtpx:TrackPointExtension>
</extensions>
</trkpt>
<trkpt lat="34.741756439209" lon="127.73220825195312">
<ele>9.493522</ele>
<time>2020-12-29T09:13:26Z</time>
</trkpt>
<trkpt lat="34.7417335510254" lon="127.73226165771484">
<time>2020-12-29T09:13:28Z</time>
</trkpt>
<trkpt lat="34.7417106628418" lon="127.73233032226562">
<time>2020-12-29T09:13:31Z</time>
</trkpt>
<trkpt lat="34.7416839599609" lon="127.73239135742188">
<ele>9.949427</ele>
<time>2020-12-29T09:13:35Z</time>
</trkpt>
<trkpt lat="34.7416572570801" lon="127.7324447631836">
<time>2020-12-29T09:13:40Z</time>
</trkpt>
<trkpt lat="34.7416610717773" lon="127.73250579833984">
<time>2020-12-29T09:13:43Z</time>
</trkpt>
<trkpt lat="34.7416572570801" lon="127.7325668334961">
<ele>9.578021</ele>
<time>2020-12-29T09:13:45Z</time>
</trkpt>
<trkpt lat="34.7416305541992" lon="127.73262786865234">
<time>2020-12-29T09:13:49Z</time>
</trkpt>
<trkpt lat="34.7416000366211" lon="127.73268127441406">
<time>2020-12-29T09:13:52Z</time>
</trkpt>
<trkpt lat="34.7415466308594" lon="127.73271179199219">
<ele>9.828572</ele>
<time>2020-12-29T09:13:55Z</time>
</trkpt>
<trkpt lat="34.7415313720703" lon="127.7327651977539">
<time>2020-12-29T09:14:00Z</time>
</trkpt>
<trkpt lat="34.7415161132813" lon="127.73281860351562">
<time>2020-12-29T09:14:04Z</time>
<extensions>
<gpxtpx:TrackPointExtension>
<gpxtpx:hr>130</gpxtpx:hr>
<gpxtpx:cad>107</gpxtpx:cad>
</gpxtpx:TrackPointExtension>
</extensions>
</trkpt>
<trkpt lat="34.7415046691895" lon="127.73289489746094">
<ele>9.420814</ele>
<time>2020-12-29T09:14:09Z</time>
</trkpt>
<trkpt lat="34.7414741516113" lon="127.73294830322266">
<ele>9.344175</ele>
<time>2020-12-29T09:14:16Z</time>
</trkpt>
<trkpt lat="34.7414703369141" lon="127.7330093383789">
<time>2020-12-29T09:14:22Z</time>
</trkpt>
<trkpt lat="34.7414321899414" lon="127.73306274414062">
<ele>9.133913</ele>
<time>2020-12-29T09:14:28Z</time>
</trkpt>
<trkpt lat="34.7414360046387" lon="127.73312377929688">
<time>2020-12-29T09:14:32Z</time>
</trkpt>
<trkpt lat="34.741455078125" lon="127.7331771850586">
<ele>8.912846</ele>
<time>2020-12-29T09:14:35Z</time>
</trkpt>
<trkpt lat="34.7414970397949" lon="127.73323059082031">
<time>2020-12-29T09:14:39Z</time>
</trkpt>
<trkpt lat="34.7415046691895" lon="127.7332992553711">
<time>2020-12-29T09:14:43Z</time>
</trkpt>
<trkpt lat="34.7415313720703" lon="127.73334503173828">
<ele>10.645094</ele>
<time>2020-12-29T09:14:46Z</time>
</trkpt>
<trkpt lat="34.7415161132813" lon="127.73340606689453">
<time>2020-12-29T09:14:50Z</time>
</trkpt>
<trkpt lat="34.7414970397949" lon="127.73347473144531">
<time>2020-12-29T09:14:53Z</time>
</trkpt>
<trkpt lat="34.7415046691895" lon="127.73353576660156">
<ele>9.719508</ele>
<time>2020-12-29T09:14:57Z</time>
</trkpt>
<trkpt lat="34.7415161132813" lon="127.73359680175781">
<time>2020-12-29T09:15:01Z</time>
</trkpt>
<trkpt lat="34.7414970397949" lon="127.73365020751953">
<time>2020-12-29T09:15:04Z</time>
<extensions>
<gpxtpx:TrackPointExtension>
<gpxtpx:hr>150</gpxtpx:hr>
<gpxtpx:cad>107</gpxtpx:cad>
</gpxtpx:TrackPointExtension>
</extensions>
</trkpt>
<trkpt lat="34.7414932250977" lon="127.73371124267578">
<ele>9.3844595</ele>
<time>2020-12-29T09:15:09Z</time>
</trkpt>
<trkpt lat="34.7414665222168" lon="127.7337646484375">
<time>2020-12-29T09:15:12Z</time>
</trkpt>
<trkpt lat="34.7414741516113" lon="127.73383331298828">
<ele>9.709682</ele>
<time>2020-12-29T09:15:16Z</time>
</trkpt>
<trkpt lat="34.7414855957031" lon="127.73390197753906">
<time>2020-12-29T09:15:20Z</time>
</trkpt>
<trkpt lat="34.7414855957031" lon="127.73396301269531">
<time>2020-12-29T09:15:23Z</time>
</trkpt>
<trkpt lat="34.7414894104004" lon="127.73402404785156">
<ele>9.167319</ele>
<time>2020-12-29T09:15:27Z</time>
</trkpt>
<trkpt lat="34.7414779663086" lon="127.73408508300781">
<time>2020-12-29T09:15:31Z</time>
</trkpt>
<trkpt lat="34.7415237426758" lon="127.734130859375">
<ele>9.001272</ele>
<time>2020-12-29T09:15:35Z</time>
</trkpt>
<trkpt lat="34.7415008544922" lon="127.73418426513672">
<time>2020-12-29T09:15:38Z</time>
</trkpt>
<trkpt lat="34.7414894104004" lon="127.73424530029297">
<time>2020-12-29T09:15:41Z</time>
</trkpt>
<trkpt lat="34.7415008544922" lon="127.73430633544922">
<time>2020-12-29T09:15:44Z</time>
<extensions>
<gpxtpx:TrackPointExtension>
<gpxtpx:cad>108</gpxtpx:cad>
</gpxtpx:TrackPointExtension>
</extensions>
</trkpt>
<trkpt lat="34.7414855957031" lon="127.73435974121094">
<ele>9.375617</ele>
<time>2020-12-29T09:15:48Z</time>
</trkpt>
<trkpt lat="34.7414779663086" lon="127.73442840576172">
<time>2020-12-29T09:15:53Z</time>
</trkpt>
<trkpt lat="34.7414665222168" lon="127.73448944091797">
<ele>9.40411</ele>
<time>2020-12-29T09:15:57Z</time>
</trkpt>
<trkpt lat="34.7414665222168" lon="127.73455047607422">
<time>2020-12-29T09:16:01Z</time>
</trkpt>
<trkpt lat="34.7414665222168" lon="127.73461151123047">
<ele>9.403128</ele>
<time>2020-12-29T09:16:05Z</time>
</trkpt>
<trkpt lat="34.7414932250977" lon="127.73465728759766">
<time>2020-12-29T09:16:09Z</time>
</trkpt>
<trkpt lat="34.7414970397949" lon="127.73473358154297">
<time>2020-12-29T09:16:14Z</time>
<extensions>
<gpxtpx:TrackPointExtension>
<gpxtpx:cad>107</gpxtpx:cad>
</gpxtpx:TrackPointExtension>
</extensions>
</trkpt>
<trkpt lat="34.741527557373" lon="127.73477935791016">
<ele>9.431622</ele>
<time>2020-12-29T09:16:18Z</time>
</trkpt>
<trkpt lat="34.7415161132813" lon="127.73483276367188">
<time>2020-12-29T09:16:22Z</time>
</trkpt>
<trkpt lat="34.7414894104004" lon="127.73487854003906">
<ele>9.584899</ele>
<time>2020-12-29T09:16:28Z</time>
</trkpt>
<trkpt lat="34.7415008544922" lon="127.73493957519531">
<time>2020-12-29T09:16:33Z</time>
</trkpt>
<trkpt lat="34.7414855957031" lon="127.73500061035156">
<ele>9.100508</ele>
<time>2020-12-29T09:16:38Z</time>
</trkpt>
<trkpt lat="34.7414855957031" lon="127.73506927490234">
<time>2020-12-29T09:16:42Z</time>
</trkpt>
<trkpt lat="34.7414970397949" lon="127.73512268066406">
<ele>9.429656</ele>
<time>2020-12-29T09:16:45Z</time>
<extensions>
<gpxtpx:TrackPointExtension>
<gpxtpx:hr>140</gpxtpx:hr>
</gpxtpx:TrackPointExtension>
</extensions>
</trkpt>
<trkpt lat="34.7415084838867" lon="127.73517608642578">
<time>2020-12-29T09:16:48Z</time>
</trkpt>
<trkpt lat="34.7414970397949" lon="127.7352294921875">
<time>2020-12-29T09:16:50Z</time>
</trkpt>
<trkpt lat="34.7414779663086" lon="127.73528289794922">
<time>2020-12-29T09:16:52Z</time>
</trkpt>
<trkpt lat="34.7414741516113" lon="127.73534393310547">
<ele>9.732282</ele>
<time>2020-12-29T09:16:55Z</time>
</trkpt>
<trkpt lat="34.7414817810059" lon="127.73540496826172">
<time>2020-12-29T09:17:00Z</time>
<extensions>
<gpxtpx:TrackPointExtension>
<gpxtpx:hr>143</gpxtpx:hr>
</gpxtpx:TrackPointExtension>
</extensions>
</trkpt>
<trkpt lat="34.7414627075195" lon="127.73545837402344">
<ele>9.116228</ele>
<time>2020-12-29T09:17:05Z</time>
</trkpt>
<trkpt lat="34.7414398193359" lon="127.73551177978516">
<time>2020-12-29T09:17:08Z</time>
</trkpt>
<trkpt lat="34.7414398193359" lon="127.73558044433594">
<time>2020-12-29T09:17:11Z</time>
</trkpt>
<trkpt lat="34.741397857666" lon="127.73560333251953">
<ele>9.212516</ele>
<time>2020-12-29T09:17:15Z</time>
</trkpt>
<trkpt lat="34.7413864135742" lon="127.73566436767578">
<time>2020-12-29T09:17:19Z</time>
</trkpt>
<trkpt lat="34.7414245605469" lon="127.7357177734375">
<time>2020-12-29T09:17:22Z</time>
</trkpt>
<trkpt lat="34.7414321899414" lon="127.73577880859375">
<ele>9.528893</ele>
<time>2020-12-29T09:17:26Z</time>
</trkpt>
<trkpt lat="34.741455078125" lon="127.73585510253906">
<time>2020-12-29T09:17:31Z</time>
</trkpt>
<trkpt lat="34.7414588928223" lon="127.73592376708984">
<ele>8.967867</ele>
<time>2020-12-29T09:17:36Z</time>
</trkpt>
<trkpt lat="34.7414321899414" lon="127.7359848022461">
<time>2020-12-29T09:17:40Z</time>
</trkpt>
<trkpt lat="34.741397857666" lon="127.73602294921875">
<time>2020-12-29T09:17:42Z</time>
</trkpt>
<trkpt lat="34.7413482666016" lon="127.7360610961914">
<ele>8.645602</ele>
<time>2020-12-29T09:17:46Z</time>
</trkpt>
<trkpt lat="34.7412948608398" lon="127.73607635498047">
<time>2020-12-29T09:17:49Z</time>
</trkpt>
<trkpt lat="34.7412490844727" lon="127.73607635498047">
<time>2020-12-29T09:17:52Z</time>
</trkpt>
<trkpt lat="34.7412033081055" lon="127.7360610961914">
<ele>9.025836</ele>
<time>2020-12-29T09:17:58Z</time>
</trkpt>
<trkpt lat="34.7411689758301" lon="127.73611450195312">
<time>2020-12-29T09:18:01Z</time>
</trkpt>
<trkpt lat="34.7411231994629" lon="127.73614501953125">
<time>2020-12-29T09:18:04Z</time>
<extensions>
<gpxtpx:TrackPointExtension>
<gpxtpx:hr>154</gpxtpx:hr>
<gpxtpx:cad>110</gpxtpx:cad>
</gpxtpx:TrackPointExtension>
</extensions>
</trkpt>
<trkpt lat="34.7410697937012" lon="127.73616790771484">
<ele>9.106402</ele>
<time>2020-12-29T09:18:08Z</time>
</trkpt>
<trkpt lat="34.7410278320313" lon="127.73621368408203">
<time>2020-12-29T09:18:12Z</time>
</trkpt>
<trkpt lat="34.7409896850586" lon="127.73625183105469">
<ele>9.169285</ele>
<time>2020-12-29T09:18:15Z</time>
</trkpt>
<trkpt lat="34.7409553527832" lon="127.73628997802734">
<time>2020-12-29T09:18:18Z</time>
</trkpt>
<trkpt lat="34.7409439086914" lon="127.73634338378906">
<time>2020-12-29T09:18:22Z</time>
</trkpt>
<trkpt lat="34.7409782409668" lon="127.73638916015625">
<ele>10.360143</ele>
<time>2020-12-29T09:18:26Z</time>
</trkpt>
<trkpt lat="34.7410202026367" lon="127.73643493652344">
<time>2020-12-29T09:18:29Z</time>
</trkpt>
<trkpt lat="34.7410697937012" lon="127.73648071289062">
<time>2020-12-29T09:18:32Z</time>
</trkpt>
<trkpt lat="34.7411079406738" lon="127.73652648925781">
<ele>11.248416</ele>
<time>2020-12-29T09:18:35Z</time>
</trkpt>
<trkpt lat="34.7411499023438" lon="127.736572265625">
<time>2020-12-29T09:18:38Z</time>
</trkpt>
<trkpt lat="34.7411689758301" lon="127.73662567138672">
<time>2020-12-29T09:18:42Z</time>
</trkpt>
<trkpt lat="34.7411918640137" lon="127.73668670654297">
<ele>11.917593</ele>
<time>2020-12-29T09:18:50Z</time>
</trkpt>
<trkpt lat="34.7412223815918" lon="127.73673248291016">
<time>2020-12-29T09:18:54Z</time>
<extensions>
<gpxtpx:TrackPointExtension>
<gpxtpx:cad>105</gpxtpx:cad>
</gpxtpx:TrackPointExtension>
</extensions>
</trkpt>
<trkpt lat="34.7412490844727" lon="127.73677825927734">
<ele>13.559669</ele>
<time>2020-12-29T09:18:56Z</time>
</trkpt>
<trkpt lat="34.741283416748" lon="127.73682403564453">
<time>2020-12-29T09:18:59Z</time>
</trkpt>
<trkpt lat="34.7413024902344" lon="127.73688507080078">
<time>2020-12-29T09:19:03Z</time>
</trkpt>
<trkpt lat="34.7413444519043" lon="127.73693084716797">
<ele>14.489349</ele>
<time>2020-12-29T09:19:09Z</time>
</trkpt>
<trkpt lat="34.741382598877" lon="127.73698425292969">
<time>2020-12-29T09:19:13Z</time>
</trkpt>
<trkpt lat="34.7414054870605" lon="127.73704528808594">
<ele>14.812683</ele>
<time>2020-12-29T09:19:17Z</time>
</trkpt>
<trkpt lat="34.7414207458496" lon="127.73710632324219">
<time>2020-12-29T09:19:20Z</time>
</trkpt>
<trkpt lat="34.7414360046387" lon="127.7371597290039">
<time>2020-12-29T09:19:24Z</time>
<extensions>
<gpxtpx:TrackPointExtension>
<gpxtpx:cad>107</gpxtpx:cad>
</gpxtpx:TrackPointExtension>
</extensions>
</trkpt>
<trkpt lat="34.7414512634277" lon="127.73721313476562">
<ele>15.229387</ele>
<time>2020-12-29T09:19:27Z</time>
</trkpt>
<trkpt lat="34.7414855957031" lon="127.73726654052734">
<time>2020-12-29T09:19:30Z</time>
</trkpt>
<trkpt lat="34.7414970397949" lon="127.73731994628906">
<ele>15.992056</ele>
<time>2020-12-29T09:19:35Z</time>
</trkpt>
<trkpt lat="34.7415237426758" lon="127.73737335205078">
<time>2020-12-29T09:19:38Z</time>
</trkpt>
<trkpt lat="34.7415428161621" lon="127.73743438720703">
<time>2020-12-29T09:19:42Z</time>
</trkpt>
<trkpt lat="34.7415504455566" lon="127.73750305175781">
<ele>16.623047</ele>
<time>2020-12-29T09:19:47Z</time>
</trkpt>
<trkpt lat="34.7415390014648" lon="127.73755645751953">
<time>2020-12-29T09:19:50Z</time>
</trkpt>
<trkpt lat="34.7415428161621" lon="127.73762512207031">
<time>2020-12-29T09:19:54Z</time>
<extensions>
<gpxtpx:TrackPointExtension>
<gpxtpx:cad>106</gpxtpx:cad>
</gpxtpx:TrackPointExtension>
</extensions>
</trkpt>
<trkpt lat="34.7415504455566" lon="127.7376937866211">
<ele>17.97158</ele>
<time>2020-12-29T09:19:59Z</time>
</trkpt>
<trkpt lat="34.7415313720703" lon="127.73776245117188">
<time>2020-12-29T09:20:03Z</time>
</trkpt>
<trkpt lat="34.7415199279785" lon="127.73782348632812">
<ele>17.940126</ele>
<time>2020-12-29T09:20:07Z</time>
</trkpt>
<trkpt lat="34.7414970397949" lon="127.73787689208984">
<time>2020-12-29T09:20:11Z</time>
</trkpt>
<trkpt lat="34.7414894104004" lon="127.73795318603516">
<ele>18.63015</ele>
<time>2020-12-29T09:20:15Z</time>
</trkpt>
<trkpt lat="34.7414779663086" lon="127.73800659179688">
<time>2020-12-29T09:20:20Z</time>
</trkpt>
<trkpt lat="34.741455078125" lon="127.7380599975586">
<ele>20.426086</ele>
<time>2020-12-29T09:20:26Z</time>
</trkpt>
<trkpt lat="34.7414436340332" lon="127.73812103271484">
<time>2020-12-29T09:20:31Z</time>
</trkpt>
<trkpt lat="34.7414321899414" lon="127.7381820678711">
<ele>21.214497</ele>
<time>2020-12-29T09:20:36Z</time>
</trkpt>
<trkpt lat="34.7414054870605" lon="127.73824310302734">
<time>2020-12-29T09:20:42Z</time>
</trkpt>
<trkpt lat="34.7413940429688" lon="127.73829650878906">
<ele>22.03931</ele>
<time>2020-12-29T09:20:45Z</time>
</trkpt>
<trkpt lat="34.7413673400879" lon="127.73834991455078">
<time>2020-12-29T09:20:49Z</time>
</trkpt>
<trkpt lat="34.7413711547852" lon="127.73841857910156">
<time>2020-12-29T09:20:53Z</time>
</trkpt>
<trkpt lat="34.7413864135742" lon="127.73847198486328">
<ele>24.19341</ele>
<time>2020-12-29T09:20:56Z</time>
</trkpt>
<trkpt lat="34.7413635253906" lon="127.738525390625">
<time>2020-12-29T09:21:00Z</time>
</trkpt>
<trkpt lat="34.7413520812988" lon="127.73858642578125">
<ele>24.836437</ele>
<time>2020-12-29T09:21:06Z</time>
</trkpt>
<trkpt lat="34.7413330078125" lon="127.73866271972656">
<time>2020-12-29T09:21:11Z</time>
</trkpt>
<trkpt lat="34.7413482666016" lon="127.73872375488281">
<ele>24.121637</ele>
<time>2020-12-29T09:21:15Z</time>
</trkpt>
<trkpt lat="34.7413330078125" lon="127.73880004882812">
<time>2020-12-29T09:21:20Z</time>
</trkpt>
<trkpt lat="34.741283416748" lon="127.73884582519531">
<ele>22.938875</ele>
<time>2020-12-29T09:21:26Z</time>
</trkpt>
<trkpt lat="34.7412261962891" lon="127.73889923095703">
<time>2020-12-29T09:21:30Z</time>
</trkpt>
<trkpt lat="34.7411842346191" lon="127.73893737792969">
<time>2020-12-29T09:21:33Z</time>
</trkpt>
<trkpt lat="34.7411689758301" lon="127.739013671875">
<ele>23.80898</ele>
<time>2020-12-29T09:21:37Z</time>
</trkpt>
<trkpt lat="34.7411994934082" lon="127.73908233642578">
<time>2020-12-29T09:21:40Z</time>
</trkpt>
<trkpt lat="34.7412300109863" lon="127.7391357421875">
<time>2020-12-29T09:21:44Z</time>
<extensions>
<gpxtpx:TrackPointExtension>
<gpxtpx:hr>131</gpxtpx:hr>
<gpxtpx:cad>109</gpxtpx:cad>
</gpxtpx:TrackPointExtension>
</extensions>
</trkpt>
<trkpt lat="34.7412071228027" lon="127.73921203613281">
<ele>24.83447</ele>
<time>2020-12-29T09:21:47Z</time>
</trkpt>
<trkpt lat="34.7411880493164" lon="127.73926544189453">
<time>2020-12-29T09:21:51Z</time>
</trkpt>
<trkpt lat="34.7411804199219" lon="127.73934173583984">
<ele>24.19931</ele>
<time>2020-12-29T09:21:55Z</time>
</trkpt>
<trkpt lat="34.7411689758301" lon="127.73941040039062">
<time>2020-12-29T09:22:00Z</time>
</trkpt>
<trkpt lat="34.7411727905273" lon="127.7394790649414">
<ele>24.025284</ele>
<time>2020-12-29T09:22:06Z</time>
</trkpt>
<trkpt lat="34.7411422729492" lon="127.73953247070312">
<time>2020-12-29T09:22:10Z</time>
</trkpt>
<trkpt lat="34.7411155700684" lon="127.73957824707031">
<time>2020-12-29T09:22:13Z</time>
</trkpt>
<trkpt lat="34.7411003112793" lon="127.73963165283203">
<ele>23.706728</ele>
<time>2020-12-29T09:22:16Z</time>
</trkpt>
<trkpt lat="34.7411270141602" lon="127.73967742919922">
<time>2020-12-29T09:22:18Z</time>
</trkpt>
<trkpt lat="34.7411727905273" lon="127.73970794677734">
<time>2020-12-29T09:22:20Z</time>
</trkpt>
<trkpt lat="34.7412223815918" lon="127.7397689819336">
<time>2020-12-29T09:22:23Z</time>
</trkpt>
<trkpt lat="34.7411956787109" lon="127.73982238769531">
<ele>23.164017</ele>
<time>2020-12-29T09:22:32Z</time>
</trkpt>
<trkpt lat="34.7412147521973" lon="127.73988342285156">
<ele>23.756872</ele>
<time>2020-12-29T09:22:34Z</time>
<extensions>
<gpxtpx:TrackPointExtension>
<gpxtpx:cad>110</gpxtpx:cad>
</gpxtpx:TrackPointExtension>
</extensions>
</trkpt>
<trkpt lat="34.7412452697754" lon="127.73995208740234">
<time>2020-12-29T09:22:36Z</time>
</trkpt>
<trkpt lat="34.7412528991699" lon="127.7400131225586">
<time>2020-12-29T09:22:40Z</time>
</trkpt>
<trkpt lat="34.7412643432617" lon="127.74007415771484">
<time>2020-12-29T09:22:42Z</time>
</trkpt>
<trkpt lat="34.7412796020508" lon="127.74012756347656">
<ele>23.588747</ele>
<time>2020-12-29T09:22:48Z</time>
</trkpt>
<trkpt lat="34.7412986755371" lon="127.74018859863281">
<time>2020-12-29T09:22:51Z</time>
</trkpt>
<trkpt lat="34.741340637207" lon="127.74021911621094">
<ele>23.666418</ele>
<time>2020-12-29T09:22:54Z</time>
<extensions>
<gpxtpx:TrackPointExtension>
<gpxtpx:cad>110</gpxtpx:cad>
</gpxtpx:TrackPointExtension>
</extensions>
</trkpt>
<trkpt lat="34.7413787841797" lon="127.74024963378906">
<time>2020-12-29T09:22:59Z</time>
</trkpt>
<trkpt lat="34.7414131164551" lon="127.74028778076172">
<time>2020-12-29T09:23:03Z</time>
</trkpt>
<trkpt lat="34.7414588928223" lon="127.74032592773438">
<ele>22.839577</ele>
<time>2020-12-29T09:23:07Z</time>
</trkpt>
<trkpt lat="34.7414932250977" lon="127.74036407470703">
<time>2020-12-29T09:23:11Z</time>
</trkpt>
<trkpt lat="34.7415351867676" lon="127.74038696289062">
<ele>23.493378</ele>
<time>2020-12-29T09:23:14Z</time>
<extensions>
<gpxtpx:TrackPointExtension>
<gpxtpx:cad>111</gpxtpx:cad>
</gpxtpx:TrackPointExtension>
</extensions>
</trkpt>
<trkpt lat="34.7415809631348" lon="127.74038696289062">
<time>2020-12-29T09:23:18Z</time>
</trkpt>
<trkpt lat="34.741641998291" lon="127.74038696289062">
<time>2020-12-29T09:23:21Z</time>
</trkpt>
<trkpt lat="34.7416801452637" lon="127.74044799804688">
<time>2020-12-29T09:23:24Z</time>
<extensions>
<gpxtpx:TrackPointExtension>
<gpxtpx:cad>127</gpxtpx:cad>
</gpxtpx:TrackPointExtension>
</extensions>
</trkpt>
<trkpt lat="34.7417182922363" lon="127.74052429199219">
<ele>22.584944</ele>
<time>2020-12-29T09:23:26Z</time>
</trkpt>
<trkpt lat="34.7417640686035" lon="127.74058532714844">
<time>2020-12-29T09:23:28Z</time>
</trkpt>
<trkpt lat="34.7418174743652" lon="127.74061584472656">
<time>2020-12-29T09:23:30Z</time>
</trkpt>
<trkpt lat="34.7418785095215" lon="127.74063873291016">
<time>2020-12-29T09:23:32Z</time>
</trkpt>
<trkpt lat="34.7419204711914" lon="127.74066162109375">
<ele>21.653934</ele>
<time>2020-12-29T09:23:35Z</time>
</trkpt>
<trkpt lat="34.7419700622559" lon="127.74067687988281">
<time>2020-12-29T09:23:38Z</time>
</trkpt>
<trkpt lat="34.7420196533203" lon="127.74068450927734">
<time>2020-12-29T09:23:41Z</time>
</trkpt>
<trkpt lat="34.7420654296875" lon="127.74068450927734">
<time>2020-12-29T09:23:44Z</time>
<extensions>
<gpxtpx:TrackPointExtension>
<gpxtpx:cad>116</gpxtpx:cad>
</gpxtpx:TrackPointExtension>
</extensions>
</trkpt>
<trkpt lat="34.742115020752" lon="127.74070739746094">
<ele>21.376703</ele>
<time>2020-12-29T09:23:48Z</time>
</trkpt>
<trkpt lat="34.7421646118164" lon="127.74072265625">
<time>2020-12-29T09:23:52Z</time>
</trkpt>
<trkpt lat="34.7422180175781" lon="127.7407455444336">
<time>2020-12-29T09:23:56Z</time>
</trkpt>
<trkpt lat="34.7422676086426" lon="127.74073791503906">
<ele>19.478458</ele>
<time>2020-12-29T09:24:00Z</time>
</trkpt>
<trkpt lat="34.7423210144043" lon="127.74075317382812">
<time>2020-12-29T09:24:04Z</time>
<extensions>
<gpxtpx:TrackPointExtension>
<gpxtpx:cad>110</gpxtpx:cad>
</gpxtpx:TrackPointExtension>
</extensions>
</trkpt>
<trkpt lat="34.7423667907715" lon="127.74076080322266">
<ele>20.655134</ele>
<time>2020-12-29T09:24:08Z</time>
</trkpt>
<trkpt lat="34.7424163818359" lon="127.74076080322266">
<time>2020-12-29T09:24:11Z</time>
</trkpt>
<trkpt lat="34.7424659729004" lon="127.74076843261719">
<ele>22.73733</ele>
<time>2020-12-29T09:24:15Z</time>
</trkpt>
<trkpt lat="34.7425117492676" lon="127.74076080322266">
<time>2020-12-29T09:24:20Z</time>
</trkpt>
<trkpt lat="34.7425689697266" lon="127.74078369140625">
<ele>24.158016</ele>
<time>2020-12-29T09:24:25Z</time>
<extensions>
<gpxtpx:TrackPointExtension>
<gpxtpx:hr>122</gpxtpx:hr>
</gpxtpx:TrackPointExtension>
</extensions>
</trkpt>
<trkpt lat="34.742618560791" lon="127.74079895019531">
<time>2020-12-29T09:24:29Z</time>
</trkpt>
<trkpt lat="34.7426681518555" lon="127.7408447265625">
<time>2020-12-29T09:24:32Z</time>
</trkpt>
<trkpt lat="34.7427177429199" lon="127.74085998535156">
<ele>23.685099</ele>
<time>2020-12-29T09:24:35Z</time>
</trkpt>
<trkpt lat="34.7427749633789" lon="127.7408676147461">
<time>2020-12-29T09:24:39Z</time>
</trkpt>
<trkpt lat="34.7428245544434" lon="127.74088287353516">
<time>2020-12-29T09:24:42Z</time>
</trkpt>
<trkpt lat="34.7428703308105" lon="127.74089813232422">
<ele>23.8955</ele>
<time>2020-12-29T09:24:45Z</time>
</trkpt>
<trkpt lat="34.7429275512695" lon="127.74092102050781">
<time>2020-12-29T09:24:50Z</time>
</trkpt>
<trkpt lat="34.7429847717285" lon="127.74092864990234">
<ele>23.892551</ele>
<time>2020-12-29T09:24:54Z</time>
<extensions>
<gpxtpx:TrackPointExtension>
<gpxtpx:hr>108</gpxtpx:hr>
<gpxtpx:cad>111</gpxtpx:cad>
</gpxtpx:TrackPointExtension>
</extensions>
</trkpt>
<trkpt lat="34.7430381774902" lon="127.74092864990234">
<time>2020-12-29T09:24:57Z</time>
</trkpt>
<trkpt lat="34.743091583252" lon="127.74092864990234">
<time>2020-12-29T09:25:01Z</time>
</trkpt>
<trkpt lat="34.7431373596191" lon="127.74093627929688">
<ele>24.765646</ele>
<time>2020-12-29T09:25:04Z</time>
<extensions>
<gpxtpx:TrackPointExtension>
<gpxtpx:hr>114</gpxtpx:hr>
<gpxtpx:cad>110</gpxtpx:cad>
</gpxtpx:TrackPointExtension>
</extensions>
</trkpt>
<trkpt lat="34.7431869506836" lon="127.74095916748047">
<time>2020-12-29T09:25:08Z</time>
</trkpt>
<trkpt lat="34.7432289123535" lon="127.7409896850586">
<ele>25.071432</ele>
<time>2020-12-29T09:25:14Z</time>
<extensions>
<gpxtpx:TrackPointExtension>
<gpxtpx:hr>120</gpxtpx:hr>
<gpxtpx:cad>111</gpxtpx:cad>
</gpxtpx:TrackPointExtension>
</extensions>
</trkpt>
<trkpt lat="34.7432823181152" lon="127.74100494384766">
<time>2020-12-29T09:25:18Z</time>
</trkpt>
<trkpt lat="34.743335723877" lon="127.7409896850586">
<time>2020-12-29T09:25:22Z</time>
</trkpt>
<trkpt lat="34.7433853149414" lon="127.74100494384766">
<ele>25.558146</ele>
<time>2020-12-29T09:25:26Z</time>
</trkpt>
<trkpt lat="34.7434310913086" lon="127.74102020263672">
<time>2020-12-29T09:25:30Z</time>
</trkpt>
<trkpt lat="34.7434844970703" lon="127.74101257324219">
<time>2020-12-29T09:25:33Z</time>
</trkpt>
<trkpt lat="34.7435302734375" lon="127.74103546142578">
<ele>25.909176</ele>
<time>2020-12-29T09:25:38Z</time>
</trkpt>
<trkpt lat="34.7435989379883" lon="127.74104309082031">
<time>2020-12-29T09:25:41Z</time>
</trkpt>
<trkpt lat="34.7436447143555" lon="127.7410888671875">
<ele>26.501122</ele>
<time>2020-12-29T09:25:45Z</time>
</trkpt>
<trkpt lat="34.7436866760254" lon="127.74113464355469">
<time>2020-12-29T09:25:48Z</time>
</trkpt>
<trkpt lat="34.7437362670898" lon="127.74115753173828">
<time>2020-12-29T09:25:51Z</time>
</trkpt>
<trkpt lat="34.7437858581543" lon="127.74118041992188">
<ele>26.30151</ele>
<time>2020-12-29T09:25:54Z</time>
<extensions>
<gpxtpx:TrackPointExtension>
<gpxtpx:hr>119</gpxtpx:hr>
<gpxtpx:cad>111</gpxtpx:cad>
</gpxtpx:TrackPointExtension>
</extensions>
</trkpt>
<trkpt lat="34.7438278198242" lon="127.74120330810547">
<time>2020-12-29T09:25:57Z</time>
</trkpt>
<trkpt lat="34.7438735961914" lon="127.74121856689453">
<time>2020-12-29T09:26:00Z</time>
</trkpt>
<trkpt lat="34.7439117431641" lon="127.74124908447266">
<time>2020-12-29T09:26:03Z</time>
</trkpt>
<trkpt lat="34.7439460754395" lon="127.74128723144531">
<ele>25.532581</ele>
<time>2020-12-29T09:26:07Z</time>
</trkpt>
<trkpt lat="34.7439918518066" lon="127.74132537841797">
<time>2020-12-29T09:26:12Z</time>
</trkpt>
<trkpt lat="34.7440338134766" lon="127.7413558959961">
<ele>25.651556</ele>
<time>2020-12-29T09:26:15Z</time>
</trkpt>
<trkpt lat="34.7440757751465" lon="127.74138641357422">
<time>2020-12-29T09:26:19Z</time>
</trkpt>
<trkpt lat="34.7441291809082" lon="127.74140167236328">
<time>2020-12-29T09:26:22Z</time>
</trkpt>
<trkpt lat="34.7441711425781" lon="127.74144744873047">
<ele>26.281843</ele>
<time>2020-12-29T09:26:29Z</time>
</trkpt>
<trkpt lat="34.7442016601563" lon="127.74150848388672">
<time>2020-12-29T09:26:34Z</time>
<extensions>
<gpxtpx:TrackPointExtension>
<gpxtpx:hr>115</gpxtpx:hr>
<gpxtpx:cad>116</gpxtpx:cad>
</gpxtpx:TrackPointExtension>
</extensions>
</trkpt>
<trkpt lat="34.7442359924316" lon="127.7415542602539">
<ele>25.99472</ele>
<time>2020-12-29T09:26:37Z</time>
</trkpt>
<trkpt lat="34.744270324707" lon="127.7416000366211">
<time>2020-12-29T09:26:40Z</time>
</trkpt>
<trkpt lat="34.7442893981934" lon="127.74165344238281">
<time>2020-12-29T09:26:43Z</time>
<extensions>
<gpxtpx:TrackPointExtension>
<gpxtpx:hr>112</gpxtpx:hr>
</gpxtpx:TrackPointExtension>
</extensions>
</trkpt>
<trkpt lat="34.7442893981934" lon="127.74171447753906">
<ele>25.869844</ele>
<time>2020-12-29T09:26:46Z</time>
</trkpt>
<trkpt lat="34.7442855834961" lon="127.74178314208984">
<time>2020-12-29T09:26:49Z</time>
</trkpt>
<trkpt lat="34.7442855834961" lon="127.7418441772461">
<time>2020-12-29T09:26:52Z</time>
</trkpt>
<trkpt lat="34.7442817687988" lon="127.74190521240234">
<ele>25.519798</ele>
<time>2020-12-29T09:26:55Z</time>
</trkpt>
<trkpt lat="34.7442855834961" lon="127.74198150634766">
<time>2020-12-29T09:26:59Z</time>
</trkpt>
<trkpt lat="34.7442817687988" lon="127.7420425415039">
<time>2020-12-29T09:27:02Z</time>
</trkpt>
<trkpt lat="34.7442817687988" lon="127.74210357666016">
<ele>25.919008</ele>
<time>2020-12-29T09:27:05Z</time>
</trkpt>
<trkpt lat="34.7442817687988" lon="127.74217987060547">
<time>2020-12-29T09:27:09Z</time>
</trkpt>
<trkpt lat="34.744270324707" lon="127.74223327636719">
<time>2020-12-29T09:27:13Z</time>
</trkpt>
<trkpt lat="34.7442588806152" lon="127.74229431152344">
<ele>26.109766</ele>
<time>2020-12-29T09:27:17Z</time>
</trkpt>
<trkpt lat="34.7442359924316" lon="127.74235534667969">
<time>2020-12-29T09:27:22Z</time>
</trkpt>
<trkpt lat="34.7442474365234" lon="127.74241638183594">
<ele>26.28676</ele>
<time>2020-12-29T09:27:25Z</time>
</trkpt>
<trkpt lat="34.7442321777344" lon="127.74246978759766">
<time>2020-12-29T09:27:28Z</time>
</trkpt>
<trkpt lat="34.7442436218262" lon="127.7425308227539">
<time>2020-12-29T09:27:32Z</time>
</trkpt>
<trkpt lat="34.7442474365234" lon="127.74259948730469">
<ele>26.876749</ele>
<time>2020-12-29T09:27:36Z</time>
</trkpt>
<trkpt lat="34.7442359924316" lon="127.74266052246094">
<time>2020-12-29T09:27:40Z</time>
</trkpt>
<trkpt lat="34.7442169189453" lon="127.74272918701172">
<time>2020-12-29T09:27:44Z</time>
<extensions>
<gpxtpx:TrackPointExtension>
<gpxtpx:hr>119</gpxtpx:hr>
<gpxtpx:cad>112</gpxtpx:cad>
</gpxtpx:TrackPointExtension>
</extensions>
</trkpt>
<trkpt lat="34.7441940307617" lon="127.74279022216797">
<ele>27.300568</ele>
<time>2020-12-29T09:27:49Z</time>
</trkpt>
<trkpt lat="34.7441940307617" lon="127.74285888671875">
<time>2020-12-29T09:27:53Z</time>
<extensions>
<gpxtpx:TrackPointExtension>
<gpxtpx:hr>123</gpxtpx:hr>
</gpxtpx:TrackPointExtension>
</extensions>
</trkpt>
<trkpt lat="34.7441749572754" lon="127.74291229248047">
<ele>27.782413</ele>
<time>2020-12-29T09:27:57Z</time>
</trkpt>
<trkpt lat="34.7441825866699" lon="127.7430191040039">
<time>2020-12-29T09:28:04Z</time>
<extensions>
<gpxtpx:TrackPointExtension>
<gpxtpx:hr>124</gpxtpx:hr>
<gpxtpx:cad>112</gpxtpx:cad>
</gpxtpx:TrackPointExtension>
</extensions>
</trkpt>
<trkpt lat="34.7441825866699" lon="127.74309539794922">
<ele>27.828632</ele>
<time>2020-12-29T09:28:07Z</time>
</trkpt>
<trkpt lat="34.7441787719727" lon="127.74317932128906">
<time>2020-12-29T09:28:11Z</time>
</trkpt>
<trkpt lat="34.7441787719727" lon="127.74324798583984">
<time>2020-12-29T09:28:14Z</time>
<extensions>
<gpxtpx:TrackPointExtension>
<gpxtpx:hr>130</gpxtpx:hr>
<gpxtpx:cad>67</gpxtpx:cad>
</gpxtpx:TrackPointExtension>
</extensions>
</trkpt>
<trkpt lat="34.7441673278809" lon="127.7433090209961">
<ele>28.341957</ele>
<time>2020-12-29T09:28:18Z</time>
</trkpt>
<trkpt lat="34.7441825866699" lon="127.74336242675781">
<time>2020-12-29T09:28:22Z</time>
</trkpt>
<trkpt lat="34.7441749572754" lon="127.7434310913086">
<ele>28.297705</ele>
<time>2020-12-29T09:28:26Z</time>
</trkpt>
<trkpt lat="34.7441520690918" lon="127.74349975585938">
<time>2020-12-29T09:28:29Z</time>
</trkpt>
<trkpt lat="34.7441444396973" lon="127.74356842041016">
<time>2020-12-29T09:28:33Z</time>
</trkpt>
<trkpt lat="34.7441329956055" lon="127.74362182617188">
<ele>28.888733</ele>
<time>2020-12-29T09:28:37Z</time>
</trkpt>
<trkpt lat="34.7440986633301" lon="127.7436752319336">
<time>2020-12-29T09:28:41Z</time>
</trkpt>
<trkpt lat="34.7441101074219" lon="127.74372863769531">
<ele>28.234768</ele>
<time>2020-12-29T09:28:45Z</time>
</trkpt>
<trkpt lat="34.7441177368164" lon="127.74378967285156">
<time>2020-12-29T09:28:49Z</time>
</trkpt>
<trkpt lat="34.7441139221191" lon="127.74385070800781">
<time>2020-12-29T09:28:52Z</time>
</trkpt>
<trkpt lat="34.7441101074219" lon="127.74393463134766">
<ele>27.911236</ele>
<time>2020-12-29T09:28:55Z</time>
</trkpt>
<trkpt lat="34.7441101074219" lon="127.74400329589844">
<time>2020-12-29T09:29:00Z</time>
</trkpt>
<trkpt lat="34.7441139221191" lon="127.74407958984375">
<time>2020-12-29T09:29:04Z</time>
<extensions>
<gpxtpx:TrackPointExtension>
<gpxtpx:hr>122</gpxtpx:hr>
<gpxtpx:cad>111</gpxtpx:cad>
</gpxtpx:TrackPointExtension>
</extensions>
</trkpt>
<trkpt lat="34.7440986633301" lon="127.744140625">
<ele>27.697844</ele>
<time>2020-12-29T09:29:07Z</time>
</trkpt>
<trkpt lat="34.7440605163574" lon="127.74419403076172">
<time>2020-12-29T09:29:11Z</time>
</trkpt>
<trkpt lat="34.7440567016602" lon="127.74425506591797">
<ele>28.201332</ele>
<time>2020-12-29T09:29:15Z</time>
</trkpt>
<trkpt lat="34.7440338134766" lon="127.74430847167969">
<time>2020-12-29T09:29:20Z</time>
</trkpt>
<trkpt lat="34.7440185546875" lon="127.74437713623047">
<time>2020-12-29T09:29:23Z</time>
</trkpt>
<trkpt lat="34.7440032958984" lon="127.74444580078125">
<ele>27.968271</ele>
<time>2020-12-29T09:29:27Z</time>
</trkpt>
<trkpt lat="34.744010925293" lon="127.74451446533203">
<time>2020-12-29T09:29:30Z</time>
</trkpt>
<trkpt lat="34.744010925293" lon="127.74458312988281">
<time>2020-12-29T09:29:33Z</time>
</trkpt>
<trkpt lat="34.744010925293" lon="127.7446517944336">
<ele>28.724503</ele>
<time>2020-12-29T09:29:37Z</time>
</trkpt>
<trkpt lat="34.7440223693848" lon="127.74470520019531">
<time>2020-12-29T09:29:43Z</time>
</trkpt>
<trkpt lat="34.7440185546875" lon="127.74478149414062">
<ele>28.277054</ele>
<time>2020-12-29T09:29:48Z</time>
</trkpt>
<trkpt lat="34.7440032958984" lon="127.74483489990234">
<time>2020-12-29T09:29:51Z</time>
</trkpt>
<trkpt lat="34.7439880371094" lon="127.74491119384766">
<ele>28.87693</ele>
<time>2020-12-29T09:29:55Z</time>
</trkpt>
<trkpt lat="34.7439727783203" lon="127.7449722290039">
<time>2020-12-29T09:29:58Z</time>
</trkpt>
<trkpt lat="34.743968963623" lon="127.74503326416016">
<time>2020-12-29T09:30:01Z</time>
</trkpt>
<trkpt lat="34.7439498901367" lon="127.74510192871094">
<ele>29.075583</ele>
<time>2020-12-29T09:30:08Z</time>
</trkpt>
<trkpt lat="34.7439231872559" lon="127.74514770507812">
<time>2020-12-29T09:30:11Z</time>
</trkpt>
<trkpt lat="34.7439155578613" lon="127.74522399902344">
<ele>29.559435</ele>
<time>2020-12-29T09:30:15Z</time>
</trkpt>
<trkpt lat="34.7439155578613" lon="127.74530029296875">
<time>2020-12-29T09:30:19Z</time>
</trkpt>
<trkpt lat="34.7439079284668" lon="127.745361328125">
<time>2020-12-29T09:30:22Z</time>
</trkpt>
<trkpt lat="34.7439041137695" lon="127.74542236328125">
<ele>29.758093</ele>
<time>2020-12-29T09:30:27Z</time>
</trkpt>
<trkpt lat="34.7439231872559" lon="127.7454833984375">
<time>2020-12-29T09:30:29Z</time>
</trkpt>
<trkpt lat="34.7439041137695" lon="127.74553680419922">
<time>2020-12-29T09:30:32Z</time>
</trkpt>
<trkpt lat="34.7438888549805" lon="127.74559020996094">
<ele>30.195736</ele>
<time>2020-12-29T09:30:35Z</time>
</trkpt>
<trkpt lat="34.7438735961914" lon="127.74565887451172">
<time>2020-12-29T09:30:39Z</time>
</trkpt>
<trkpt lat="34.7438621520996" lon="127.74571990966797">
<time>2020-12-29T09:30:43Z</time>
</trkpt>
<trkpt lat="34.7438507080078" lon="127.74578094482422">
<ele>30.523235</ele>
<time>2020-12-29T09:30:47Z</time>
</trkpt>
<trkpt lat="34.7438659667969" lon="127.74584197998047">
<time>2020-12-29T09:30:50Z</time>
</trkpt>
<trkpt lat="34.7438735961914" lon="127.74590301513672">
<time>2020-12-29T09:30:54Z</time>
<extensions>
<gpxtpx:TrackPointExtension>
<gpxtpx:cad>114</gpxtpx:cad>
</gpxtpx:TrackPointExtension>
</extensions>
</trkpt>
<trkpt lat="34.7438659667969" lon="127.7459716796875">
<ele>30.72387</ele>
<time>2020-12-29T09:30:58Z</time>
</trkpt>
<trkpt lat="34.7438507080078" lon="127.74603271484375">
<time>2020-12-29T09:31:03Z</time>
</trkpt>
<trkpt lat="34.7438316345215" lon="127.74609375">
<ele>30.248844</ele>
<time>2020-12-29T09:31:07Z</time>
</trkpt>
<trkpt lat="34.7438278198242" lon="127.74615478515625">
<time>2020-12-29T09:31:10Z</time>
</trkpt>
<trkpt lat="34.7438316345215" lon="127.74622344970703">
<time>2020-12-29T09:31:13Z</time>
</trkpt>
<trkpt lat="34.743839263916" lon="127.74629974365234">
<ele>29.49551</ele>
<time>2020-12-29T09:31:18Z</time>
</trkpt>
<trkpt lat="34.7438583374023" lon="127.74636840820312">
<time>2020-12-29T09:31:22Z</time>
</trkpt>
<trkpt lat="34.7438659667969" lon="127.74642944335938">
<ele>28.227884</ele>
<time>2020-12-29T09:31:26Z</time>
</trkpt>
<trkpt lat="34.7438850402832" lon="127.7464828491211">
<time>2020-12-29T09:31:29Z</time>
</trkpt>
<trkpt lat="34.7438774108887" lon="127.74654388427734">
<time>2020-12-29T09:31:32Z</time>
</trkpt>
<trkpt lat="34.7438659667969" lon="127.74659729003906">
<ele>26.878716</ele>
<time>2020-12-29T09:31:35Z</time>
</trkpt>
<trkpt lat="34.7438697814941" lon="127.74666595458984">
<time>2020-12-29T09:31:39Z</time>
</trkpt>
<trkpt lat="34.7438430786133" lon="127.7467269897461">
<time>2020-12-29T09:31:43Z</time>
</trkpt>
<trkpt lat="34.7438430786133" lon="127.74678802490234">
<ele>25.548313</ele>
<time>2020-12-29T09:31:46Z</time>
</trkpt>
<trkpt lat="34.743824005127" lon="127.7468490600586">
<time>2020-12-29T09:31:51Z</time>
</trkpt>
<trkpt lat="34.743824005127" lon="127.7469253540039">
<ele>23.935812</ele>
<time>2020-12-29T09:31:55Z</time>
</trkpt>
<trkpt lat="34.7438278198242" lon="127.74699401855469">
<time>2020-12-29T09:31:58Z</time>
</trkpt>
<trkpt lat="34.7438354492188" lon="127.74705505371094">
<time>2020-12-29T09:32:01Z</time>
</trkpt>
<trkpt lat="34.7438430786133" lon="127.74711608886719">
<time>2020-12-29T09:32:04Z</time>
<extensions>
<gpxtpx:TrackPointExtension>
<gpxtpx:hr>123</gpxtpx:hr>
<gpxtpx:cad>114</gpxtpx:cad>
</gpxtpx:TrackPointExtension>
</extensions>
</trkpt>
<trkpt lat="34.7438583374023" lon="127.74718475341797">
<ele>22.462051</ele>
<time>2020-12-29T09:32:07Z</time>
</trkpt>
<trkpt lat="34.7438659667969" lon="127.74725341796875">
<time>2020-12-29T09:32:12Z</time>
</trkpt>
<trkpt lat="34.7438621520996" lon="127.747314453125">
<ele>21.006086</ele>
<time>2020-12-29T09:32:16Z</time>
</trkpt>
<trkpt lat="34.7438621520996" lon="127.74737548828125">
<time>2020-12-29T09:32:19Z</time>
</trkpt>
<trkpt lat="34.7438621520996" lon="127.7474365234375">
<time>2020-12-29T09:32:22Z</time>
</trkpt>
<trkpt lat="34.743839263916" lon="127.74750518798828">
<ele>19.619028</ele>
<time>2020-12-29T09:32:25Z</time>
</trkpt>
<trkpt lat="34.7438087463379" lon="127.74755859375">
<time>2020-12-29T09:32:28Z</time>
</trkpt>
<trkpt lat="34.7437744140625" lon="127.74759674072266">
<time>2020-12-29T09:32:31Z</time>
</trkpt>
<trkpt lat="34.7437515258789" lon="127.7476577758789">
<time>2020-12-29T09:32:34Z</time>
<extensions>
<gpxtpx:TrackPointExtension>
<gpxtpx:hr>121</gpxtpx:hr>
<gpxtpx:cad>114</gpxtpx:cad>
</gpxtpx:TrackPointExtension>
</extensions>
</trkpt>
<trkpt lat="34.7437362670898" lon="127.74772644042969">
<ele>18.204535</ele>
<time>2020-12-29T09:32:38Z</time>
</trkpt>
<trkpt lat="34.7437133789063" lon="127.7477798461914">
<time>2020-12-29T09:32:41Z</time>
</trkpt>
<trkpt lat="34.7437210083008" lon="127.74784088134766">
<ele>17.400507</ele>
<time>2020-12-29T09:32:46Z</time>
</trkpt>
<trkpt lat="34.7437019348145" lon="127.7479019165039">
<time>2020-12-29T09:32:51Z</time>
</trkpt>
<trkpt lat="34.7436752319336" lon="127.74796295166016">
<ele>17.255037</ele>
<time>2020-12-29T09:32:56Z</time>
</trkpt>
<trkpt lat="34.7436447143555" lon="127.74800872802734">
<time>2020-12-29T09:33:00Z</time>
</trkpt>
<trkpt lat="34.7435989379883" lon="127.74807739257812">
<time>2020-12-29T09:33:04Z</time>
<extensions>
<gpxtpx:TrackPointExtension>
<gpxtpx:hr>132</gpxtpx:hr>
<gpxtpx:cad>111</gpxtpx:cad>
</gpxtpx:TrackPointExtension>
</extensions>
</trkpt>
<trkpt lat="34.7435874938965" lon="127.74813842773438">
<ele>17.153801</ele>
<time>2020-12-29T09:33:07Z</time>
</trkpt>
<trkpt lat="34.7435760498047" lon="127.7481918334961">
<time>2020-12-29T09:33:10Z</time>
</trkpt>
<trkpt lat="34.7435760498047" lon="127.7482681274414">
<ele>16.415663</ele>
<time>2020-12-29T09:33:14Z</time>
<extensions>
<gpxtpx:TrackPointExtension>
<gpxtpx:hr>128</gpxtpx:hr>
</gpxtpx:TrackPointExtension>
</extensions>
</trkpt>
<trkpt lat="34.7435646057129" lon="127.74832916259766">
<time>2020-12-29T09:33:18Z</time>
</trkpt>
<trkpt lat="34.7435646057129" lon="127.74839782714844">
<time>2020-12-29T09:33:22Z</time>
</trkpt>
<trkpt lat="34.7435646057129" lon="127.74845886230469">
<ele>15.794506</ele>
<time>2020-12-29T09:33:26Z</time>
</trkpt>
<trkpt lat="34.7435607910156" lon="127.74853515625">
<time>2020-12-29T09:33:30Z</time>
</trkpt>
<trkpt lat="34.7435722351074" lon="127.74860382080078">
<time>2020-12-29T09:33:34Z</time>
<extensions>
<gpxtpx:TrackPointExtension>
<gpxtpx:hr>121</gpxtpx:hr>
<gpxtpx:cad>113</gpxtpx:cad>
</gpxtpx:TrackPointExtension>
</extensions>
</trkpt>
<trkpt lat="34.7435569763184" lon="127.74868774414062">
<ele>15.613667</ele>
<time>2020-12-29T09:33:40Z</time>
</trkpt>
<trkpt lat="34.743537902832" lon="127.74874114990234">
<time>2020-12-29T09:33:43Z</time>
</trkpt>
<trkpt lat="34.7434883117676" lon="127.74877166748047">
<ele>15.951759</ele>
<time>2020-12-29T09:33:47Z</time>
</trkpt>
<trkpt lat="34.7434539794922" lon="127.74881744384766">
<time>2020-12-29T09:33:49Z</time>
</trkpt>
<trkpt lat="34.743408203125" lon="127.74885559082031">
<time>2020-12-29T09:33:51Z</time>
</trkpt>
<trkpt lat="34.7433547973633" lon="127.74890899658203">
<time>2020-12-29T09:33:53Z</time>
</trkpt>
<trkpt lat="34.7433052062988" lon="127.74893951416016">
<ele>16.048077</ele>
<time>2020-12-29T09:33:56Z</time>
</trkpt>
<trkpt lat="34.7432479858398" lon="127.74894714355469">
<time>2020-12-29T09:34:00Z</time>
</trkpt>
<trkpt lat="34.7431945800781" lon="127.74894714355469">
<time>2020-12-29T09:34:04Z</time>
<extensions>
<gpxtpx:TrackPointExtension>
<gpxtpx:hr>147</gpxtpx:hr>
<gpxtpx:cad>114</gpxtpx:cad>
</gpxtpx:TrackPointExtension>
</extensions>
</trkpt>
<trkpt lat="34.7431411743164" lon="127.74894714355469">
<ele>17.063375</ele>
<time>2020-12-29T09:34:09Z</time>
</trkpt>
<trkpt lat="34.743091583252" lon="127.74894714355469">
<time>2020-12-29T09:34:13Z</time>
</trkpt>
<trkpt lat="34.743034362793" lon="127.74897003173828">
<ele>17.465378</ele>
<time>2020-12-29T09:34:16Z</time>
</trkpt>
<trkpt lat="34.7429809570313" lon="127.74897766113281">
<time>2020-12-29T09:34:19Z</time>
</trkpt>
<trkpt lat="34.7429275512695" lon="127.74900817871094">
<time>2020-12-29T09:34:24Z</time>
<extensions>
<gpxtpx:TrackPointExtension>
<gpxtpx:hr>156</gpxtpx:hr>
<gpxtpx:cad>107</gpxtpx:cad>
</gpxtpx:TrackPointExtension>
</extensions>
</trkpt>
<trkpt lat="34.7429237365723" lon="127.74906921386719">
<ele>18.49352</ele>
<time>2020-12-29T09:34:31Z</time>
</trkpt>
<trkpt lat="34.7429695129395" lon="127.7490463256836">
<ele>20.64334</ele>
<time>2020-12-29T09:34:36Z</time>
</trkpt>
<trkpt lat="34.7430229187012" lon="127.74905395507812">
<time>2020-12-29T09:34:39Z</time>
</trkpt>
<trkpt lat="34.7430686950684" lon="127.74905395507812">
<time>2020-12-29T09:34:42Z</time>
</trkpt>
<trkpt lat="34.743106842041" lon="127.74908447265625">
<ele>20.64334</ele>
<time>2020-12-29T09:34:46Z</time>
</trkpt>
<trkpt lat="34.7431221008301" lon="127.7491455078125">
<time>2020-12-29T09:34:53Z</time>
</trkpt>
<trkpt lat="34.7431488037109" lon="127.74909973144531">
<ele>21.29216</ele>
<time>2020-12-29T09:34:58Z</time>
</trkpt>
</trkseg>
</trk>
<exerciseinfo>
<exercisetype>1001</exercisetype>
<distance>2110.574</distance>
<elevationgain>0.0</elevationgain>
<avggradient>12.494010491777207</avggradient>
<duration>1424690</duration>
<avgspeed>1.4814268</avgspeed>
</exerciseinfo>
</gpx>
